{
    "links": {
        "self": "http://www.neowsapp.com/rest/v1/neo/3321570?api_key=iIulBulltgU6a56xZRHN4H3l9WmuAYTsLGpBGhQ2"
    },
    "id": "3321570",
    "neo_reference_id": "3321570",
    "name": "(2006 CF10)",
    "designation": "2006 CF10",
    "nasa_jpl_url": "http://ssd.jpl.nasa.gov/sbdb.cgi?sstr=3321570",
    "absolute_magnitude_h": 25.4,
    "estimated_diameter": {
        "kilometers": {
            "estimated_diameter_min": 0.022108281,
            "estimated_diameter_max": 0.0494356193
        },
        "meters": {
            "estimated_diameter_min": 22.1082810359,
            "estimated_diameter_max": 49.435619262
        },
        "miles": {
            "estimated_diameter_min": 0.0137374447,
            "estimated_diameter_max": 0.0307178602
        },
        "feet": {
            "estimated_diameter_min": 72.5337327539,
            "estimated_diameter_max": 162.1903570994
        }
    },
    "is_potentially_hazardous_asteroid": false,
    "close_approach_data": [
        {
            "close_approach_date": "2005-10-02",
            "close_approach_date_full": "2005-Oct-02 09:09",
            "epoch_date_close_approach": 1128244140000,
            "relative_velocity": {
                "kilometers_per_second": "8.0181219747",
                "kilometers_per_hour": "28865.2391088581",
                "miles_per_hour": "17935.737045168"
            },
            "miss_distance": {
                "astronomical": "0.4073130434",
                "lunar": "158.4447738826",
                "kilometers": "60933163.715857558",
                "miles": "37862112.2435599804"
            },
            "orbiting_body": "Earth"
        },
        {
            "close_approach_date": "2006-01-31",
            "close_approach_date_full": "2006-Jan-31 07:24",
            "epoch_date_close_approach": 1138692240000,
            "relative_velocity": {
                "kilometers_per_second": "12.5786659364",
                "kilometers_per_hour": "45283.1973708744",
                "miles_per_hour": "28137.2178330303"
            },
            "miss_distance": {
                "astronomical": "0.0576469317",
                "lunar": "22.4246564313",
                "kilometers": "8623858.194355479",
                "miles": "5358616.9996004502"
            },
            "orbiting_body": "Earth"
        }
    ],
    "orbital_data": {
        "orbit_id": "6",
        "orbit_determination_date": "2017-04-06 09:09:08",
        "first_observation_date": "2006-02-05",
        "last_observation_date": "2006-02-08",
        "data_arc_in_days": 3,
        "observations_used": 11,
        "orbit_uncertainty": "8",
        "minimum_orbit_intersection": ".0573545",
        "jupiter_tisserand_invariant": "4.364",
        "epoch_osculation": "2453772.5",
        "eccentricity": ".3710708983115156",
        "semi_major_axis": "1.524496108412638",
        "inclination": "18.98733916445036",
        "ascending_node_longitude": "135.8365304151175",
        "orbital_period": "687.5240695337044",
        "perihelion_distance": ".9587999679915505",
        "perihelion_argument": "311.7188263649372",
        "aphelion_distance": "2.090192248833725",
        "perihelion_time": "2453729.969963856575",
        "mean_anomaly": "22.2694938113471",
        "mean_motion": ".5236180316482022",
        "equinox": "J2000",
        "orbit_class": {
            "orbit_class_type": "APO",
            "orbit_class_description": "Near-Earth asteroid orbits which cross the Earth’s orbit similar to that of 1862 Apollo",
            "orbit_class_range": "a (semi-major axis) > 1.0 AU; q (perihelion) < 1.017 AU"
        }
    },
    "is_sentry_object": false
}